GLOBALSTAR M068 [-]     
1 32266U 07048D   24106.18041997 -.00000059  00000+0  24678-3 0  9994
2 32266  51.9868 166.9228 0000645 255.7559 139.6225 12.62784593763770
GLOBALSTAR M079 [+]     
1 37188U 10054A   24106.21207351 -.00000073  00000+0  17093-3 0  9994
2 37188  52.0068   2.6108 0000938  79.2634  94.1488 12.62268311623083
GLOBALSTAR M074 [+]     
1 37189U 10054B   24105.90135727 -.00000076  00000+0  15367-3 0  9992
2 37189  52.0042   2.9465 0000643  78.9014   1.2578 12.62266858622976
GLOBALSTAR M076 [+]     
1 37190U 10054C   24105.92762507 -.00000070  00000+0  18790-3 0  9995
2 37190  52.0057   2.9975 0000993 108.0585 332.2290 12.62276586622692
GLOBALSTAR M077 [+]     
1 37191U 10054D   24105.92002545 -.00000078  00000+0  14140-3 0  9998
2 37191  52.0081 319.7564 0000747  97.8760   6.9435 12.62271515623065
GLOBALSTAR M075 [+]     
1 37192U 10054E   24106.27609602 -.00000082  00000+0  12244-3 0  9993
2 37192  51.9968  44.4300 0000639  65.7010  98.3349 12.62272312622334
GLOBALSTAR M073 [+]     
1 37193U 10054F   24106.03865105 -.00000071  00000+0  18019-3 0  9994
2 37193  52.0066 318.6489 0000870  95.9941  68.7116 12.62263732623818
GLOBALSTAR M083 [+]     
1 37739U 11033A   24106.49842174 -.00000050  00000+0  30209-3 0  9991
2 37739  51.9850 266.5632 0000710  87.4603 308.0724 12.62268662593209
GLOBALSTAR M088 [+]     
1 37740U 11033B   24106.00374794 -.00000088  00000+0  85484-4 0  9995
2 37740  51.9722 173.9216 0000423  89.8555 337.2627 12.62266999588617
GLOBALSTAR M091 [+]     
1 37741U 11033C   24105.48027206 -.00000102  00000+0  93582-5 0  9996
2 37741  51.9976 138.3037 0000418  55.6675  91.5036 12.62261548589040
GLOBALSTAR M085 [+]     
1 37742U 11033D   24105.39175448 -.00000106  00000+0 -11699-4 0  9992
2 37742  51.9857  89.9894 0000543  47.5603 116.8099 12.62269509589541
GLOBALSTAR M081 [+]     
1 37743U 11033E   24106.44933330 -.00000099  00000+0  28088-4 0  9992
2 37743  51.9949  89.2914 0000663  61.5267 111.0252 12.62264148590202
GLOBALSTAR M089 [+]     
1 37744U 11033F   24106.15770954 -.00000088  00000+0  88363-4 0  9992
2 37744  51.9952  44.4889 0000644 103.9975   1.8442 12.62261845590889
GLOBALSTAR M084 [+]     
1 38040U 11080A   24105.77407604 -.00000079  00000+0  13708-3 0  9990
2 38040  52.0000 272.7181 0000866 124.6539 338.2758 12.62273284568565
GLOBALSTAR M080 [+]     
1 38041U 11080B   24106.44192687 -.00000073  00000+0  17331-3 0  9998
2 38041  52.0052 272.1432 0001073 125.4059 252.6967 12.62271294568912
GLOBALSTAR M082 [+]     
1 38042U 11080C   24105.68300903 -.00000084  00000+0  11050-3 0  9990
2 38042  52.0068 229.8539 0000378  49.8905  57.7264 12.62267961569385
GLOBALSTAR M092 [+]     
1 38043U 11080D   24106.06509025 -.00000072  00000+0  17655-3 0  9994
2 38043  52.0090 319.0455 0000592 103.6174  61.8018 12.62278023568096
GLOBALSTAR M090 [+]     
1 38044U 11080E   24105.62895539 -.00000081  00000+0  12502-3 0  9990
2 38044  51.9877 224.3774 0000469  92.6577  10.4162 12.62268065569497
GLOBALSTAR M086 [+]     
1 38045U 11080F   24105.65596620 -.00000081  00000+0  12544-3 0  9999
2 38045  51.9889 224.8136 0001525 100.5362   4.8626 12.62269428569444
GLOBALSTAR M097 [+]     
1 39072U 13005A   24106.21370849 -.00000107  00000+0 -17881-4 0  9995
2 39072  52.0024 137.2290 0000493  73.1318 286.9603 12.62262384516843
GLOBALSTAR M093 [+]     
1 39073U 13005B   24106.02872746 -.00000105  00000+0 -50471-5 0  9999
2 39073  51.9789 131.7793 0000530  59.5764 300.5155 12.62263106516817
GLOBALSTAR M094 [+]     
1 39074U 13005C   24106.26632195 -.00000095  00000+0  50114-4 0  9998
2 39074  51.9979  45.0069 0000762  61.9549 298.1395 12.62264222518356
GLOBALSTAR M096 [+]     
1 39075U 13005D   24106.12105113 -.00000109  00000+0 -27206-4 0  9992
2 39075  52.0063  93.6293 0000638  49.7276 310.3647 12.62264279517587
GLOBALSTAR M078 [+]     
1 39076U 13005E   24106.49116563  .00000003  00000+0  59842-3 0  9995
2 39076  51.9859 177.6013 0000646 324.6801  35.4023 12.62262002516113
GLOBALSTAR M095 [+]     
1 39077U 13005F   24106.20002199 -.00000060  00000+0  24237-3 0  9998
2 39077  51.9790 175.8920 0000524  26.9801 333.1093 12.62265282516086
GLOBALSTAR M087 [+]     
1 52888U 22064A   24106.19210699 -.00000103  00000+0  48740-4 0  9996
2 52888  51.9762  68.0389 0009080 202.3941 157.6564 13.37569668 89099
